ONEWEB-0597             
1 54663U 22166X   25216.72416007 -.00000013  00000+0 -63339-4 0  9997
2 54663  87.9270 307.1315 0002096 102.9639 257.1729 13.21825951129738
ONEWEB-0600             
1 54664U 22166Y   25216.25262969  .00000001  00000+0 -28888-4 0  9998
2 54664  87.9264 307.2213 0002166 100.0395 260.0984 13.21826364129641
ONEWEB-0601             
1 54665U 22166Z   25216.69891038  .00000005  00000+0 -19707-4 0  9996
2 54665  87.9268 307.1472 0002161 108.1106 252.0263 13.21827575129899
ONEWEB-0602             
1 54666U 22166AA  25216.28573389  .00000029  00000+0  38609-4 0  9995
2 54666  87.9270 307.2300 0002361 101.8768 258.2631 13.21827138129689
ONEWEB-0603             
1 54667U 22166AB  25216.66895066  .00000065  00000+0  12485-3 0  9990
2 54667  87.9265 307.0903 0002213 104.8295 255.3084 13.21827521129669
ONEWEB-0604             
1 54668U 22166AC  25216.27786761  .00000044  00000+0  75219-4 0  9991
2 54668  87.9272 307.1907 0002268 101.6521 258.4867 13.21826358129570
ONEWEB-0605             
1 54669U 22166AD  25216.72572635  .00000011  00000+0 -57906-5 0  9994
2 54669  87.9269 307.1324 0002137 118.7841 241.3508 13.21826291129703
ONEWEB-0606             
1 54670U 22166AE  25216.67211769  .00000015  00000+0  41783-5 0  9997
2 54670  87.9269 307.1540 0001866  96.2027 263.9319 13.21826100129753
